{"type": "FeatureCollection", "features": [{"type": "Feature", "id": "MMI.CRUZ GRANDE", "properties": {"code": "CRUZ GRANDE", "name": null, "instrumentType": "OBSERVED", "source": "MMI", "network": "MMI", "commType": "UNK", "location": "", "intensity": 5.0, "intensity_flag": "0", "intensity_stddev": 0.3, "pga": 4.9044, "pgv": 6.2912, "distance": 327.781, "elev": null, "vs30": 600.0, "channels": [], "nresp": -1, "station_type": "macroseismic", "predictions": [{"name": "mmi", "value": 4.1403, "value_rock": 4.0685, "value_soil": 4.2462, "units": "intensity", "tau": 0.2652, "phi": 0.7884, "sigma": 0.8318, "sigma_rock": 0.8334, "sigma_soil": 0.8339, "bias": 0.0, "bias_sigma": 0.2652}, {"name": "pga", "value": 1.9443, "value_rock": 1.7476, "value_soil": 2.2755, "units": "%g", "ln_tau": 0.3939, "ln_phi": 0.6405, "ln_sigma": 0.752, "ln_sigma_rock": 0.756, "ln_sigma_soil": 0.7571, "ln_bias": 0.0, "ln_bias_sigma": 0.3939}, {"name": "sa(0.3)", "value": 3.6746, "value_rock": 2.9406, "value_soil": 5.5696, "units": "%g", "ln_tau": 0.3713, "ln_phi": 0.7211, "ln_sigma": 0.8111, "ln_sigma_rock": 0.8118, "ln_sigma_soil": 0.8124, "ln_bias": 0.0, "ln_bias_sigma": 0.3713}, {"name": "sa(1.0)", "value": 1.908, "value_rock": 1.6348, "value_soil": 3.4589, "units": "%g", "ln_tau": 0.4553, "ln_phi": 0.6626, "ln_sigma": 0.804, "ln_sigma_rock": 0.8081, "ln_sigma_soil": 0.8085, "ln_bias": 0.0, "ln_bias_sigma": 0.4553}, {"name": "sa(3.0)", "value": 0.5009, "value_rock": 0.4548, "value_soil": 0.7809, "units": "%g", "ln_tau": 0.4359, "ln_phi": 0.6234, "ln_sigma": 0.7607, "ln_sigma_rock": 0.7765, "ln_sigma_soil": 0.7765, "ln_bias": 0.0, "ln_bias_sigma": 0.4359}, {"name": "pgv", "value": 1.803, "value_rock": 1.5448, "value_soil": 3.2685, "units": "cm/s", "ln_tau": 0.4553, "ln_phi": 0.8343, "ln_sigma": 0.9504, "ln_sigma_rock": 0.9547, "ln_sigma_soil": 0.9552, "ln_bias": 0.0, "ln_bias_sigma": 0.4553}], "pgm_from_mmi": [{"name": "pga", "value": 4.9044, "units": "%g", "ln_sigma": 0.8059, "flag": "0"}, {"name": "sa(1.0)", "value": 10.6978, "units": "%g", "ln_sigma": 1.0822, "flag": "0"}, {"name": "sa(3.0)", "value": 2.2499, "units": "%g", "ln_sigma": 1.4737, "flag": "0"}, {"name": "sa(0.3)", "value": 9.1875, "units": "%g", "ln_sigma": 1.0131, "flag": "0"}, {"name": "pgv", "value": 6.2912, "units": "cm/s", "ln_sigma": 0.875, "flag": "0"}], "distance_stddev": 44.299, "distances": {"repi": 353.429, "rhypo": 358.536, "rjb": 315.571, "rjb_var": 1166.342, "rrup": 327.781, "rrup_var": 1962.387, "rvolc": 0.0}}, "geometry": {"type": "Point", "coordinates": [-71.33, -29.43]}}, {"type": "Feature", "id": "MMI.ILLAPEL", "properties": {"code": "ILLAPEL", "name": null, "instrumentType": "OBSERVED", "source": "MMI", "network": "MMI", "commType": "UNK", "location": "", "intensity": 9.0, "intensity_flag": "0", "intensity_stddev": 0.3, "pga": 78.4167, "pgv": 116.0264, "distance": 107.616, "elev": null, "vs30": 432.84, "channels": [], "nresp": -1, "station_type": "macroseismic", "predictions": [{"name": "mmi", "value": 6.3787, "value_rock": 6.1748, "value_soil": 6.4499, "units": "intensity", "tau": 0.633, "phi": 1.318, "sigma": 1.4622, "sigma_rock": 1.4684, "sigma_soil": 1.4657, "bias": 0.0, "bias_sigma": 0.633}, {"name": "pga", "value": 15.3445, "value_rock": 13.516, "value_soil": 16.0399, "units": "%g", "ln_tau": 0.3939, "ln_phi": 0.71, "ln_sigma": 0.812, "ln_sigma_rock": 0.8163, "ln_sigma_soil": 0.8145, "ln_bias": 0.0, "ln_bias_sigma": 0.3939}, {"name": "sa(0.3)", "value": 30.9006, "value_rock": 23.3776, "value_soil": 38.7564, "units": "%g", "ln_tau": 0.3713, "ln_phi": 0.7729, "ln_sigma": 0.8575, "ln_sigma_rock": 0.8597, "ln_sigma_soil": 0.8512, "ln_bias": 0.0, "ln_bias_sigma": 0.3713}, {"name": "sa(1.0)", "value": 9.096, "value_rock": 7.233, "value_soil": 14.5791, "units": "%g", "ln_tau": 0.4553, "ln_phi": 0.7214, "ln_sigma": 0.8531, "ln_sigma_rock": 0.8588, "ln_sigma_soil": 0.859, "ln_bias": 0.0, "ln_bias_sigma": 0.4553}, {"name": "sa(3.0)", "value": 1.9266, "value_rock": 1.6858, "value_soil": 2.8947, "units": "%g", "ln_tau": 0.4359, "ln_phi": 0.6749, "ln_sigma": 0.8034, "ln_sigma_rock": 0.8212, "ln_sigma_soil": 0.8212, "ln_bias": 0.0, "ln_bias_sigma": 0.4359}, {"name": "pgv", "value": 8.6077, "value_rock": 6.8448, "value_soil": 13.7964, "units": "cm/s", "ln_tau": 0.4553, "ln_phi": 0.8825, "ln_sigma": 0.993, "ln_sigma_rock": 0.9982, "ln_sigma_soil": 0.9985, "ln_bias": 0.0, "ln_bias_sigma": 0.4553}], "pgm_from_mmi": [{"name": "pga", "value": 78.4167, "units": "%g", "ln_sigma": 0.8059, "flag": "0"}, {"name": "sa(1.0)", "value": 215.4626, "units": "%g", "ln_sigma": 1.0822, "flag": "0"}, {"name": "sa(3.0)", "value": 39.5147, "units": "%g", "ln_sigma": 1.4737, "flag": "0"}, {"name": "sa(0.3)", "value": 139.2541, "units": "%g", "ln_sigma": 1.0131, "flag": "0"}, {"name": "pgv", "value": 116.0264, "units": "cm/s", "ln_sigma": 0.875, "flag": "0"}], "distance_stddev": 41.691, "distances": {"repi": 110.629, "rhypo": 125.995, "rjb": 80.103, "rjb_var": 726.435, "rrup": 107.616, "rrup_var": 1738.119, "rvolc": 0.0}}, "geometry": {"type": "Point", "coordinates": [-71.18, -31.61]}}, {"type": "Feature", "id": "MMI.LOS VILOS", "properties": {"code": "LOS VILOS", "name": null, "instrumentType": "OBSERVED", "source": "MMI", "network": "MMI", "commType": "UNK", "location": "", "intensity": 9.0, "intensity_flag": "0", "intensity_stddev": 0.3, "pga": 81.7816, "pgv": 116.0264, "distance": 92.403, "elev": null, "vs30": 600.0, "channels": [], "nresp": -1, "station_type": "macroseismic", "predictions": [{"name": "mmi", "value": 6.6353, "value_rock": 6.4809, "value_soil": 6.703, "units": "intensity", "tau": 0.633, "phi": 1.3234, "sigma": 1.4669, "sigma_rock": 1.4735, "sigma_soil": 1.47, "bias": 0.0, "bias_sigma": 0.633}, {"name": "pga", "value": 18.7736, "value_rock": 17.0537, "value_soil": 19.5818, "units": "%g", "ln_tau": 0.3939, "ln_phi": 0.7138, "ln_sigma": 0.8153, "ln_sigma_rock": 0.8199, "ln_sigma_soil": 0.8175, "ln_bias": 0.0, "ln_bias_sigma": 0.3939}, {"name": "sa(0.3)", "value": 36.4434, "value_rock": 29.1875, "value_soil": 45.9729, "units": "%g", "ln_tau": 0.3713, "ln_phi": 0.7747, "ln_sigma": 0.8591, "ln_sigma_rock": 0.8617, "ln_sigma_soil": 0.8522, "ln_bias": 0.0, "ln_bias_sigma": 0.3713}, {"name": "sa(1.0)", "value": 10.2728, "value_rock": 8.8015, "value_soil": 17.4101, "units": "%g", "ln_tau": 0.4553, "ln_phi": 0.7307, "ln_sigma": 0.8609, "ln_sigma_rock": 0.8671, "ln_sigma_soil": 0.8672, "ln_bias": 0.0, "ln_bias_sigma": 0.4553}, {"name": "sa(3.0)", "value": 2.2174, "value_rock": 2.0133, "value_soil": 3.457, "units": "%g", "ln_tau": 0.4359, "ln_phi": 0.6844, "ln_sigma": 0.8114, "ln_sigma_rock": 0.8296, "ln_sigma_soil": 0.8296, "ln_bias": 0.0, "ln_bias_sigma": 0.4359}, {"name": "pgv", "value": 9.7233, "value_rock": 8.3307, "value_soil": 16.4787, "units": "cm/s", "ln_tau": 0.4553, "ln_phi": 0.8905, "ln_sigma": 1.0001, "ln_sigma_rock": 1.0055, "ln_sigma_soil": 1.0057, "ln_bias": 0.0, "ln_bias_sigma": 0.4553}], "pgm_from_mmi": [{"name": "pga", "value": 81.7816, "units": "%g", "ln_sigma": 0.8059, "flag": "0"}, {"name": "sa(1.0)", "value": 209.985, "units": "%g", "ln_sigma": 1.0822, "flag": "0"}, {"name": "sa(3.0)", "value": 38.3906, "units": "%g", "ln_sigma": 1.4737, "flag": "0"}, {"name": "sa(0.3)", "value": 142.3641, "units": "%g", "ln_sigma": 1.0131, "flag": "0"}, {"name": "pgv", "value": 116.0264, "units": "cm/s", "ln_sigma": 0.875, "flag": "0"}], "distance_stddev": 38.823, "distances": {"repi": 88.874, "rhypo": 107.4, "rjb": 60.818, "rjb_var": 570.637, "rrup": 92.403, "rrup_var": 1507.225, "rvolc": 0.0}}, "geometry": {"type": "Point", "coordinates": [-71.53, -31.9]}}, {"type": "Feature", "id": "MMI.SALAMANCA", "properties": {"code": "SALAMANCA", "name": null, "instrumentType": "OBSERVED", "source": "MMI", "network": "MMI", "commType": "UNK", "location": "", "intensity": 9.0, "intensity_flag": "0", "intensity_stddev": 0.3, "pga": 81.3551, "pgv": 116.0264, "distance": 94.172, "elev": null, "vs30": 787.14, "channels": [], "nresp": -1, "station_type": "macroseismic", "predictions": [{"name": "mmi", "value": 6.2384, "value_rock": 6.4416, "value_soil": 6.6715, "units": "intensity", "tau": 0.633, "phi": 1.3379, "sigma": 1.48, "sigma_rock": 1.4734, "sigma_soil": 1.47, "bias": 0.0, "bias_sigma": 0.633}, {"name": "pga", "value": 14.5879, "value_rock": 16.5545, "value_soil": 19.1008, "units": "%g", "ln_tau": 0.3939, "ln_phi": 0.7242, "ln_sigma": 0.8244, "ln_sigma_rock": 0.8198, "ln_sigma_soil": 0.8174, "ln_bias": 0.0, "ln_bias_sigma": 0.3939}, {"name": "sa(0.3)", "value": 25.7304, "value_rock": 28.3765, "value_soil": 45.0319, "units": "%g", "ln_tau": 0.3713, "ln_phi": 0.7823, "ln_sigma": 0.8659, "ln_sigma_rock": 0.8618, "ln_sigma_soil": 0.8524, "ln_bias": 0.0, "ln_bias_sigma": 0.3713}, {"name": "sa(1.0)", "value": 7.8898, "value_rock": 8.5811, "value_soil": 17.0225, "units": "%g", "ln_tau": 0.4553, "ln_phi": 0.7298, "ln_sigma": 0.8601, "ln_sigma_rock": 0.8663, "ln_sigma_soil": 0.8664, "ln_bias": 0.0, "ln_bias_sigma": 0.4553}, {"name": "sa(3.0)", "value": 1.8163, "value_rock": 1.9675, "value_soil": 3.3783, "units": "%g", "ln_tau": 0.4359, "ln_phi": 0.6834, "ln_sigma": 0.8106, "ln_sigma_rock": 0.8287, "ln_sigma_soil": 0.8287, "ln_bias": 0.0, "ln_bias_sigma": 0.4359}, {"name": "pgv", "value": 7.4675, "value_rock": 8.1219, "value_soil": 16.1115, "units": "cm/s", "ln_tau": 0.4553, "ln_phi": 0.8897, "ln_sigma": 0.9994, "ln_sigma_rock": 1.0048, "ln_sigma_soil": 1.005, "ln_bias": 0.0, "ln_bias_sigma": 0.4553}], "pgm_from_mmi": [{"name": "pga", "value": 81.3551, "units": "%g", "ln_sigma": 0.8059, "flag": "0"}, {"name": "sa(1.0)", "value": 210.6589, "units": "%g", "ln_sigma": 1.0822, "flag": "0"}, {"name": "sa(3.0)", "value": 38.5287, "units": "%g", "ln_sigma": 1.4737, "flag": "0"}, {"name": "sa(0.3)", "value": 141.9734, "units": "%g", "ln_sigma": 1.0131, "flag": "0"}, {"name": "pgv", "value": 116.0264, "units": "cm/s", "ln_sigma": 0.875, "flag": "0"}], "distance_stddev": 39.25, "distances": {"repi": 91.737, "rhypo": 109.78, "rjb": 63.267, "rjb_var": 593.939, "rrup": 94.172, "rrup_var": 1540.524, "rvolc": 0.0}}, "geometry": {"type": "Point", "coordinates": [-70.98, -31.78]}}, {"type": "Feature", "id": "MMI.VALPARAISO", "properties": {"code": "VALPARAISO", "name": null, "instrumentType": "OBSERVED", "source": "MMI", "network": "MMI", "commType": "UNK", "location": "", "intensity": 8.0, "intensity_flag": "0", "intensity_stddev": 0.3, "pga": 45.6306, "pgv": 55.9888, "distance": 80.258, "elev": null, "vs30": 442.03, "channels": [], "nresp": -1, "station_type": "macroseismic", "predictions": [{"name": "mmi", "value": 6.9371, "value_rock": 6.7647, "value_soil": 6.9234, "units": "intensity", "tau": 0.633, "phi": 1.3238, "sigma": 1.4674, "sigma_rock": 1.4744, "sigma_soil": 1.4699, "bias": 0.0, "bias_sigma": 0.633}, {"name": "pga", "value": 23.5492, "value_rock": 21.1537, "value_soil": 23.3505, "units": "%g", "ln_tau": 0.3939, "ln_phi": 0.7142, "ln_sigma": 0.8156, "ln_sigma_rock": 0.8205, "ln_sigma_soil": 0.8174, "ln_bias": 0.0, "ln_bias_sigma": 0.3939}, {"name": "sa(0.3)", "value": 46.3748, "value_rock": 35.7648, "value_soil": 52.9569, "units": "%g", "ln_tau": 0.3713, "ln_phi": 0.7737, "ln_sigma": 0.8582, "ln_sigma_rock": 0.8613, "ln_sigma_soil": 0.8509, "ln_bias": 0.0, "ln_bias_sigma": 0.3713}, {"name": "sa(1.0)", "value": 13.2674, "value_rock": 10.6009, "value_soil": 20.4691, "units": "%g", "ln_tau": 0.4553, "ln_phi": 0.7372, "ln_sigma": 0.8664, "ln_sigma_rock": 0.873, "ln_sigma_soil": 0.8729, "ln_bias": 0.0, "ln_bias_sigma": 0.4553}, {"name": "sa(3.0)", "value": 2.7186, "value_rock": 2.3845, "value_soil": 4.0944, "units": "%g", "ln_tau": 0.4359, "ln_phi": 0.6914, "ln_sigma": 0.8173, "ln_sigma_rock": 0.8359, "ln_sigma_soil": 0.8359, "ln_bias": 0.0, "ln_bias_sigma": 0.4359}, {"name": "pgv", "value": 12.5599, "value_rock": 10.0356, "value_soil": 19.3776, "units": "cm/s", "ln_tau": 0.4553, "ln_phi": 0.8962, "ln_sigma": 1.0052, "ln_sigma_rock": 1.0108, "ln_sigma_soil": 1.0108, "ln_bias": 0.0, "ln_bias_sigma": 0.4553}], "pgm_from_mmi": [{"name": "pga", "value": 45.6306, "units": "%g", "ln_sigma": 0.8059, "flag": "0"}, {"name": "sa(1.0)", "value": 92.6873, "units": "%g", "ln_sigma": 1.0822, "flag": "0"}, {"name": "sa(3.0)", "value": 17.3944, "units": "%g", "ln_sigma": 1.4737, "flag": "0"}, {"name": "sa(0.3)", "value": 83.3152, "units": "%g", "ln_sigma": 1.0131, "flag": "0"}, {"name": "pgv", "value": 55.9888, "units": "cm/s", "ln_sigma": 0.875, "flag": "0"}], "distance_stddev": 35.744, "distances": {"repi": 68.362, "rhypo": 91.156, "rjb": 43.468, "rjb_var": 402.714, "rrup": 80.258, "rrup_var": 1277.652, "rvolc": 0.0}}, "geometry": {"type": "Point", "coordinates": [-71.6, -33.03]}}, {"type": "Feature", "id": "MMI.QUINTERO", "properties": {"code": "QUINTERO", "name": null, "instrumentType": "OBSERVED", "source": "MMI", "network": "MMI", "commType": "UNK", "location": "", "intensity": 8.0, "intensity_flag": "0", "intensity_stddev": 0.3, "pga": 47.3869, "pgv": 55.9888, "distance": 69.982, "elev": null, "vs30": 600.0, "channels": [], "nresp": -1, "station_type": "macroseismic", "predictions": [{"name": "mmi", "value": 7.1847, "value_rock": 7.0457, "value_soil": 7.126, "units": "intensity", "tau": 0.633, "phi": 1.3245, "sigma": 1.468, "sigma_rock": 1.4757, "sigma_soil": 1.4698, "bias": 0.0, "bias_sigma": 0.633}, {"name": "pga", "value": 28.5296, "value_rock": 26.1657, "value_soil": 27.5072, "units": "%g", "ln_tau": 0.3939, "ln_phi": 0.7146, "ln_sigma": 0.816, "ln_sigma_rock": 0.8214, "ln_sigma_soil": 0.8173, "ln_bias": 0.0, "ln_bias_sigma": 0.3939}, {"name": "sa(0.3)", "value": 54.3989, "value_rock": 43.6108, "value_soil": 59.7242, "units": "%g", "ln_tau": 0.3713, "ln_phi": 0.7731, "ln_sigma": 0.8576, "ln_sigma_rock": 0.8614, "ln_sigma_soil": 0.8497, "ln_bias": 0.0, "ln_bias_sigma": 0.3713}, {"name": "sa(1.0)", "value": 14.9164, "value_rock": 12.78, "value_soil": 23.8916, "units": "%g", "ln_tau": 0.4553, "ln_phi": 0.7435, "ln_sigma": 0.8718, "ln_sigma_rock": 0.8788, "ln_sigma_soil": 0.8784, "ln_bias": 0.0, "ln_bias_sigma": 0.4553}, {"name": "sa(3.0)", "value": 3.1154, "value_rock": 2.8287, "value_soil": 4.857, "units": "%g", "ln_tau": 0.4359, "ln_phi": 0.6982, "ln_sigma": 0.8231, "ln_sigma_rock": 0.842, "ln_sigma_soil": 0.842, "ln_bias": 0.0, "ln_bias_sigma": 0.4359}, {"name": "pgv", "value": 14.1235, "value_rock": 12.1007, "value_soil": 22.6216, "units": "cm/s", "ln_tau": 0.4553, "ln_phi": 0.9018, "ln_sigma": 1.0102, "ln_sigma_rock": 1.016, "ln_sigma_soil": 1.0158, "ln_bias": 0.0, "ln_bias_sigma": 0.4553}], "pgm_from_mmi": [{"name": "pga", "value": 47.3869, "units": "%g", "ln_sigma": 0.8059, "flag": "0"}, {"name": "sa(1.0)", "value": 90.5664, "units": "%g", "ln_sigma": 1.0822, "flag": "0"}, {"name": "sa(3.0)", "value": 16.949, "units": "%g", "ln_sigma": 1.4737, "flag": "0"}, {"name": "sa(0.3)", "value": 84.9859, "units": "%g", "ln_sigma": 1.0131, "flag": "0"}, {"name": "pgv", "value": 55.9888, "units": "cm/s", "ln_sigma": 0.875, "flag": "0"}], "distance_stddev": 32.981, "distances": {"repi": 46.459, "rhypo": 76.122, "rjb": 25.982, "rjb_var": 224.192, "rrup": 69.982, "rrup_var": 1087.72, "rvolc": 0.0}}, "geometry": {"type": "Point", "coordinates": [-71.53, -32.77]}}, {"type": "Feature", "id": "MMI.COMBARBALA", "properties": {"code": "COMBARBALA", "name": null, "instrumentType": "OBSERVED", "source": "MMI", "network": "MMI", "commType": "UNK", "location": "", "intensity": 8.0, "intensity_flag": "0", "intensity_stddev": 0.3, "pga": 38.6083, "pgv": 55.9888, "distance": 147.146, "elev": null, "vs30": 407.37, "channels": [], "nresp": -1, "station_type": "macroseismic", "predictions": [{"name": "mmi", "value": 5.748, "value_rock": 5.5172, "value_soil": 5.8679, "units": "intensity", "tau": 0.633, "phi": 1.289, "sigma": 1.436, "sigma_rock": 1.4418, "sigma_soil": 1.4406, "bias": 0.0, "bias_sigma": 0.633}, {"name": "pga", "value": 9.5069, "value_rock": 8.2351, "value_soil": 10.2432, "units": "%g", "ln_tau": 0.3939, "ln_phi": 0.689, "ln_sigma": 0.7937, "ln_sigma_rock": 0.7977, "ln_sigma_soil": 0.7969, "ln_bias": 0.0, "ln_bias_sigma": 0.3939}, {"name": "sa(0.3)", "value": 19.4836, "value_rock": 14.4333, "value_soil": 25.7456, "units": "%g", "ln_tau": 0.3713, "ln_phi": 0.7579, "ln_sigma": 0.844, "ln_sigma_rock": 0.8455, "ln_sigma_soil": 0.8397, "ln_bias": 0.0, "ln_bias_sigma": 0.3713}, {"name": "sa(1.0)", "value": 6.1772, "value_rock": 4.8445, "value_soil": 10.0078, "units": "%g", "ln_tau": 0.4553, "ln_phi": 0.6972, "ln_sigma": 0.8327, "ln_sigma_rock": 0.8376, "ln_sigma_soil": 0.8379, "ln_bias": 0.0, "ln_bias_sigma": 0.4553}, {"name": "sa(3.0)", "value": 1.3546, "value_rock": 1.1772, "value_soil": 2.0213, "units": "%g", "ln_tau": 0.4359, "ln_phi": 0.6524, "ln_sigma": 0.7846, "ln_sigma_rock": 0.8014, "ln_sigma_soil": 0.8014, "ln_bias": 0.0, "ln_bias_sigma": 0.4359}, {"name": "pgv", "value": 5.8433, "value_rock": 4.5826, "value_soil": 9.4667, "units": "cm/s", "ln_tau": 0.4553, "ln_phi": 0.8623, "ln_sigma": 0.9751, "ln_sigma_rock": 0.9798, "ln_sigma_soil": 0.9802, "ln_bias": 0.0, "ln_bias_sigma": 0.4553}], "pgm_from_mmi": [{"name": "pga", "value": 38.6083, "units": "%g", "ln_sigma": 0.8059, "flag": "0"}, {"name": "sa(1.0)", "value": 102.6839, "units": "%g", "ln_sigma": 1.0822, "flag": "0"}, {"name": "sa(3.0)", "value": 19.5103, "units": "%g", "ln_sigma": 1.4737, "flag": "0"}, {"name": "sa(0.3)", "value": 76.308, "units": "%g", "ln_sigma": 1.0131, "flag": "0"}, {"name": "pgv", "value": 55.9888, "units": "cm/s", "ln_sigma": 0.875, "flag": "0"}], "distance_stddev": 44.578, "distances": {"repi": 159.179, "rhypo": 170.218, "rjb": 125.28, "rjb_var": 954.582, "rrup": 147.146, "rrup_var": 1987.168, "rvolc": 0.0}}, "geometry": {"type": "Point", "coordinates": [-71.03, -31.17]}}, {"type": "Feature", "id": "MMI.ANDACOLLO", "properties": {"code": "ANDACOLLO", "name": null, "instrumentType": "OBSERVED", "source": "MMI", "network": "MMI", "commType": "UNK", "location": "", "intensity": 7.0, "intensity_flag": "0", "intensity_stddev": 0.3, "pga": 17.6961, "pgv": 27.0175, "distance": 260.828, "elev": null, "vs30": 900.0, "channels": [], "nresp": -1, "station_type": "macroseismic", "predictions": [{"name": "mmi", "value": 4.2246, "value_rock": 4.3362, "value_soil": 4.5092, "units": "intensity", "tau": 0.2652, "phi": 0.7928, "sigma": 0.8359, "sigma_rock": 0.8376, "sigma_soil": 0.8381, "bias": 0.0, "bias_sigma": 0.2652}, {"name": "pga", "value": 2.416, "value_rock": 2.852, "value_soil": 3.6875, "units": "%g", "ln_tau": 0.3939, "ln_phi": 0.6524, "ln_sigma": 0.7621, "ln_sigma_rock": 0.7662, "ln_sigma_soil": 0.7672, "ln_bias": 0.0, "ln_bias_sigma": 0.3939}, {"name": "sa(0.3)", "value": 4.2763, "value_rock": 4.9418, "value_soil": 9.2771, "units": "%g", "ln_tau": 0.3713, "ln_phi": 0.7301, "ln_sigma": 0.8191, "ln_sigma_rock": 0.8199, "ln_sigma_soil": 0.8206, "ln_bias": 0.0, "ln_bias_sigma": 0.3713}, {"name": "sa(1.0)", "value": 2.0133, "value_rock": 2.2577, "value_soil": 4.76, "units": "%g", "ln_tau": 0.4553, "ln_phi": 0.6681, "ln_sigma": 0.8085, "ln_sigma_rock": 0.8128, "ln_sigma_soil": 0.8132, "ln_bias": 0.0, "ln_bias_sigma": 0.4553}, {"name": "sa(3.0)", "value": 0.5469, "value_rock": 0.6014, "value_soil": 1.0327, "units": "%g", "ln_tau": 0.4359, "ln_phi": 0.6276, "ln_sigma": 0.7641, "ln_sigma_rock": 0.78, "ln_sigma_soil": 0.78, "ln_bias": 0.0, "ln_bias_sigma": 0.4359}, {"name": "pgv", "value": 1.903, "value_rock": 2.1341, "value_soil": 4.4993, "units": "cm/s", "ln_tau": 0.4553, "ln_phi": 0.8386, "ln_sigma": 0.9543, "ln_sigma_rock": 0.9586, "ln_sigma_soil": 0.9591, "ln_bias": 0.0, "ln_bias_sigma": 0.4553}], "pgm_from_mmi": [{"name": "pga", "value": 17.6961, "units": "%g", "ln_sigma": 0.8059, "flag": "0"}, {"name": "sa(1.0)", "value": 51.1306, "units": "%g", "ln_sigma": 1.0822, "flag": "0"}, {"name": "sa(3.0)", "value": 10.1185, "units": "%g", "ln_sigma": 1.4737, "flag": "0"}, {"name": "sa(0.3)", "value": 40.2712, "units": "%g", "ln_sigma": 1.0131, "flag": "0"},