{"type": "FeatureCollection", "features": [{"type": "Feature", "id": "G.VAL", "properties": {"code": "VAL", "name": "Valparaiso, Chile", "instrumentType": "UNK", "source": "G", "network": "G", "commType": "UNK", "location": "", "intensity": "null", "intensity_flag": "", "intensity_stddev": "null", "pga": 17.5918, "pgv": "null", "distance": 46.361, "elev": null, "vs30": 600.0, "channels": [{"name": "H2", "amplitudes": [{"name": "sa(1.0)", "value": 16.3265, "units": "%g", "flag": "0", "ln_sigma": 0.0}, {"name": "sa(3.0)", "value": 3.9796, "units": "%g", "flag": "0", "ln_sigma": 0.0}, {"name": "pga", "value": 17.5918, "units": "%g", "flag": "0", "ln_sigma": 0.0}, {"name": "sa(0.3)", "value": 49.4898, "units": "%g", "flag": "0", "ln_sigma": 0.0}]}, {"name": "Z", "amplitudes": [{"name": "sa(1.0)", "value": 6.6327, "units": "%g", "flag": "0", "ln_sigma": 0.0}, {"name": "sa(3.0)", "value": 2.1429, "units": "%g", "flag": "0", "ln_sigma": 0.0}, {"name": "pga", "value": 12.3776, "units": "%g", "flag": "0", "ln_sigma": 0.0}, {"name": "sa(0.3)", "value": 18.8776, "units": "%g", "flag": "0", "ln_sigma": 0.0}]}, {"name": "H1", "amplitudes": [{"name": "sa(1.0)", "value": 7.7551, "units": "%g", "flag": "0", "ln_sigma": 0.0}, {"name": "sa(3.0)", "value": 1.0204, "units": "%g", "flag": "0", "ln_sigma": 0.0}, {"name": "pga", "value": 16.5306, "units": "%g", "flag": "0", "ln_sigma": 0.0}, {"name": "sa(0.3)", "value": 35.2041, "units": "%g", "flag": "0", "ln_sigma": 0.0}]}], "station_type": "seismic", "nresp": "null", "predictions": [{"name": "sa(3.0)", "value": 4.0328, "value_rock": 3.6563, "value_soil": 6.4622, "units": "%g", "ln_tau": 0.4317, "ln_phi": 0.6259, "ln_sigma": 0.7603, "ln_sigma_rock": 0.7697, "ln_sigma_soil": 0.7697, "ln_bias": 0.1489, "ln_bias_sigma": 0.2362}, {"name": "pga", "value": 33.1095, "value_rock": 29.6811, "value_soil": 31.8589, "units": "%g", "ln_tau": 0.3684, "ln_phi": 0.58, "ln_sigma": 0.6871, "ln_sigma_rock": 0.6883, "ln_sigma_soil": 0.6897, "ln_bias": -0.0675, "ln_bias_sigma": 0.1296}, {"name": "sa(1.0)", "value": 22.2297, "value_rock": 18.7204, "value_soil": 35.718, "units": "%g", "ln_tau": 0.4453, "ln_phi": 0.6495, "ln_sigma": 0.7875, "ln_sigma_rock": 0.787, "ln_sigma_soil": 0.7899, "ln_bias": 0.3117, "ln_bias_sigma": 0.2156}, {"name": "pgv", "value": 21.1425, "value_rock": 17.8048, "value_soil": 33.9711, "units": "cm/s", "ln_tau": 0.4453, "ln_phi": 0.8245, "ln_sigma": 0.9371, "ln_sigma_rock": 0.936, "ln_sigma_soil": 0.9394, "ln_bias": 0.1084, "ln_bias_sigma": 0.2004}, {"name": "sa(0.3)", "value": 80.4755, "value_rock": 63.4914, "value_soil": 85.8074, "units": "%g", "ln_tau": 0.3671, "ln_phi": 0.6607, "ln_sigma": 0.7559, "ln_sigma_rock": 0.7548, "ln_sigma_soil": 0.7549, "ln_bias": -0.2843, "ln_bias_sigma": 0.1995}, {"name": "mmi", "value": 7.2415, "value_rock": 7.0658, "value_soil": 7.1796, "units": "intensity", "tau": 0.592, "phi": 1.142, "sigma": 1.2863, "sigma_rock": 1.288, "sigma_soil": 1.2899, "bias": -0.0508, "bias_sigma": 0.2323}], "mmi_from_pgm": [{"name": "sa(3.0)", "value": 6.21, "sigma": 0.89, "flag": "0"}, {"name": "pga", "value": 6.23, "sigma": 0.66, "flag": "0"}, {"name": "sa(1.0)", "value": 5.93, "sigma": 0.75, "flag": "0"}, {"name": "pgv", "value": null, "sigma": null, "flag": "0"}, {"name": "sa(0.3)", "value": 6.92, "sigma": 0.82, "flag": "0"}], "distance_stddev": 0.0, "distances": {"repi": 25.841, "rhypo": 41.913, "rjb": 0.0, "rjb_var": 0.0, "rrup": 46.361, "rrup_var": 0.0, "rvolc": 0.0}}, "geometry": {"type": "Point", "coordinates": [-71.63, -33.02]}}, {"type": "Feature", "id": "COSMOS.MEL", "properties": {"code": "MEL", "name": "Melipilla", "instrumentType": "UNK", "source": "COSMOS", "network": "COSMOS", "commType": "UNK", "location": "", "intensity": "null", "intensity_flag": "", "intensity_stddev": "null", "pga": 68.603, "pgv": "null", "distance": 65.974, "elev": null, "vs30": 257.8, "channels": [{"name": "UP", "amplitudes": [{"name": "sa(1.0)", "value": "null", "units": "%g", "flag": "G,UnknownOrientation,0,Outlier", "ln_sigma": "null"}, {"name": "pgv", "value": "null", "units": "cm/s", "flag": "G,UnknownOrientation,0,Outlier", "ln_sigma": "null"}, {"name": "pga", "value": 25.484, "units": "%g", "flag": "UnknownOrientation,0", "ln_sigma": 0.0}, {"name": "sa(0.3)", "value": "null", "units": "%g", "flag": "G,UnknownOrientation,0,Outlier", "ln_sigma": "null"}, {"name": "sa(3.0)", "value": "null", "units": "%g", "flag": "G,UnknownOrientation,0,Outlier", "ln_sigma": "null"}]}, {"name": "H2", "amplitudes": [{"name": "sa(1.0)", "value": "null", "units": "%g", "flag": "Glitch,0,Outlier", "ln_sigma": "null"}, {"name": "pgv", "value": "null", "units": "cm/s", "flag": "Glitch,0,Outlier", "ln_sigma": "null"}, {"name": "pga", "value": 52.803, "units": "%g", "flag": "0", "ln_sigma": 0.0}, {"name": "sa(0.3)", "value": "null", "units": "%g", "flag": "Glitch,0,Outlier", "ln_sigma": "null"}, {"name": "sa(3.0)", "value": "null", "units": "%g", "flag": "Glitch,0,Outlier", "ln_sigma": "null"}]}, {"name": "H1", "amplitudes": [{"name": "sa(1.0)", "value": "null", "units": "%g", "flag": "Glitch,0,Outlier", "ln_sigma": "null"}, {"name": "pgv", "value": "null", "units": "cm/s", "flag": "Glitch,0,Outlier", "ln_sigma": "null"}, {"name": "pga", "value": 68.603, "units": "%g", "flag": "0", "ln_sigma": 0.0}, {"name": "sa(0.3)", "value": "null", "units": "%g", "flag": "Glitch,0,Outlier", "ln_sigma": "null"}, {"name": "sa(3.0)", "value": "null", "units": "%g", "flag": "Glitch,0,Outlier", "ln_sigma": "null"}]}], "station_type": "seismic", "nresp": "null", "predictions": [{"name": "sa(3.0)", "value": 4.2789, "value_rock": 2.9056, "value_soil": 5.1353, "units": "%g", "ln_tau": 0.4317, "ln_phi": 0.6259, "ln_sigma": 0.7603, "ln_sigma_rock": 0.7697, "ln_sigma_soil": 0.7697, "ln_bias": 0.1489, "ln_bias_sigma": 0.2362}, {"name": "pga", "value": 22.5232, "value_rock": 20.9312, "value_soil": 23.9485, "units": "%g", "ln_tau": 0.3684, "ln_phi": 0.58, "ln_sigma": 0.6871, "ln_sigma_rock": 0.6883, "ln_sigma_soil": 0.6897, "ln_bias": -0.0675, "ln_bias_sigma": 0.1296}, {"name": "sa(1.0)", "value": 25.3623, "value_rock": 14.2723, "value_soil": 28.3478, "units": "%g", "ln_tau": 0.4453, "ln_phi": 0.6495, "ln_sigma": 0.7875, "ln_sigma_rock": 0.787, "ln_sigma_soil": 0.7899, "ln_bias": 0.3117, "ln_bias_sigma": 0.2156}, {"name": "pgv", "value": 24.1108, "value_rock": 13.568, "value_soil": 26.949, "units": "cm/s", "ln_tau": 0.4453, "ln_phi": 0.8245, "ln_sigma": 0.9371, "ln_sigma_rock": 0.936, "ln_sigma_soil": 0.9394, "ln_bias": 0.1084, "ln_bias_sigma": 0.2004}, {"name": "sa(0.3)", "value": 70.0978, "value_rock": 45.8587, "value_soil": 69.8273, "units": "%g", "ln_tau": 0.3671, "ln_phi": 0.6607, "ln_sigma": 0.7559, "ln_sigma_rock": 0.7548, "ln_sigma_soil": 0.7549, "ln_bias": -0.2843, "ln_bias_sigma": 0.1995}, {"name": "mmi", "value": 6.7787, "value_rock": 6.6609, "value_soil": 6.8773, "units": "intensity", "tau": 0.592, "phi": 1.142, "sigma": 1.2863, "sigma_rock": 1.288, "sigma_soil": 1.2899, "bias": -0.0508, "bias_sigma": 0.2323}], "mmi_from_pgm": [{"name": "sa(3.0)", "value": null, "sigma": null, "flag": "0"}, {"name": "pga", "value": 8.57, "sigma": 0.66, "flag": "0"}, {"name": "sa(1.0)", "value": null, "sigma": null, "flag": "0"}, {"name": "pgv", "value": null, "sigma": null, "flag": "0"}, {"name": "sa(0.3)", "value": null, "sigma": null, "flag": "0"}], "distance_stddev": 0.0, "distances": {"repi": 85.58, "rhypo": 91.722, "rjb": 0.0, "rjb_var": 0.0, "rrup": 65.974, "rrup_var": 0.0, "rvolc": 0.0}}, "geometry": {"type": "Point", "coordinates": [-71.22, -33.68]}}, {"type": "Feature", "id": "COSMOS.LOS", "properties": {"code": "LOS", "name": "Los Vilos", "instrumentType": "UNK", "source": "COSMOS", "network": "COSMOS", "commType": "UNK", "location": "", "intensity": "null", "intensity_flag": "", "intensity_stddev": "null", "pga": 3.456, "pgv": "null", "distance": 75.343, "elev": null, "vs30": 394.93, "channels": [{"name": "UP", "amplitudes": [{"name": "sa(1.0)", "value": "null", "units": "%g", "flag": "G,UnknownOrientation,0,Outlier", "ln_sigma": "null"}, {"name": "pgv", "value": "null", "units": "cm/s", "flag": "G,UnknownOrientation,0,Outlier", "ln_sigma": "null"}, {"name": "pga", "value": 2.018, "units": "%g", "flag": "UnknownOrientation,0", "ln_sigma": 0.0}, {"name": "sa(0.3)", "value": "null", "units": "%g", "flag": "G,UnknownOrientation,0,Outlier", "ln_sigma": "null"}, {"name": "sa(3.0)", "value": "null", "units": "%g", "flag": "G,UnknownOrientation,0,Outlier", "ln_sigma": "null"}]}, {"name": "H2", "amplitudes": [{"name": "sa(1.0)", "value": "null", "units": "%g", "flag": "Glitch,0,Outlier", "ln_sigma": "null"}, {"name": "pgv", "value": "null", "units": "cm/s", "flag": "Glitch,0,Outlier", "ln_sigma": "null"}, {"name": "pga", "value": 3.456, "units": "%g", "flag": "0", "ln_sigma": 0.0}, {"name": "sa(0.3)", "value": "null", "units": "%g", "flag": "Glitch,0,Outlier", "ln_sigma": "null"}, {"name": "sa(3.0)", "value": "null", "units": "%g", "flag": "Glitch,0,Outlier", "ln_sigma": "null"}]}, {"name": "H1", "amplitudes": [{"name": "sa(1.0)", "value": "null", "units": "%g", "flag": "Glitch,0,Outlier", "ln_sigma": "null"}, {"name": "pgv", "value": "null", "units": "cm/s", "flag": "Glitch,0,Outlier", "ln_sigma": "null"}, {"name": "pga", "value": 2.497, "units": "%g", "flag": "0", "ln_sigma": 0.0}, {"name": "sa(0.3)", "value": "null", "units": "%g", "flag": "Glitch,0,Outlier", "ln_sigma": "null"}, {"name": "sa(3.0)", "value": "null", "units": "%g", "flag": "Glitch,0,Outlier", "ln_sigma": "null"}]}], "station_type": "seismic", "nresp": "null", "predictions": [{"name": "sa(3.0)", "value": 3.0565, "value_rock": 2.6431, "value_soil": 4.6715, "units": "%g", "ln_tau": 0.4317, "ln_phi": 0.6259, "ln_sigma": 0.7603, "ln_sigma_rock": 0.7697, "ln_sigma_soil": 0.7697, "ln_bias": 0.1489, "ln_bias_sigma": 0.2362}, {"name": "pga", "value": 20.9112, "value_rock": 18.0655, "value_soil": 21.1167, "units": "%g", "ln_tau": 0.3684, "ln_phi": 0.58, "ln_sigma": 0.6871, "ln_sigma_rock": 0.6883, "ln_sigma_soil": 0.6897, "ln_bias": -0.0675, "ln_bias_sigma": 0.1296}, {"name": "sa(1.0)", "value": 16.6284, "value_rock": 12.7378, "value_soil": 25.6306, "units": "%g", "ln_tau": 0.4453, "ln_phi": 0.6495, "ln_sigma": 0.7875, "ln_sigma_rock": 0.787, "ln_sigma_soil": 0.7899, "ln_bias": 0.3117, "ln_bias_sigma": 0.2156}, {"name": "pgv", "value": 15.8052, "value_rock": 12.1072, "value_soil": 24.3617, "units": "cm/s", "ln_tau": 0.4453, "ln_phi": 0.8245, "ln_sigma": 0.9371, "ln_sigma_rock": 0.936, "ln_sigma_soil": 0.9394, "ln_bias": 0.1084, "ln_bias_sigma": 0.2004}, {"name": "sa(0.3)", "value": 54.2178, "value_rock": 39.8679, "value_soil": 63.0539, "units": "%g", "ln_tau": 0.3671, "ln_phi": 0.6607, "ln_sigma": 0.7559, "ln_sigma_rock": 0.7548, "ln_sigma_soil": 0.7549, "ln_bias": -0.2843, "ln_bias_sigma": 0.1995}, {"name": "mmi", "value": 6.7182, "value_rock": 6.4831, "value_soil": 6.7339, "units": "intensity", "tau": 0.592, "phi": 1.142, "sigma": 1.2863, "sigma_rock": 1.288, "sigma_soil": 1.2899, "bias": -0.0508, "bias_sigma": 0.2323}], "mmi_from_pgm": [{"name": "sa(3.0)", "value": null, "sigma": null, "flag": "0"}, {"name": "pga", "value": 3.92, "sigma": 0.66, "flag": "0"}, {"name": "sa(1.0)", "value": null, "sigma": null, "flag": "0"}, {"name": "pgv", "value": null, "sigma": null, "flag": "0"}, {"name": "sa(0.3)", "value": null, "sigma": null, "flag": "0"}], "distance_stddev": 0.0, "distances": {"repi": 139.507, "rhypo": 143.357, "rjb": 60.09, "rjb_var": 0.0, "rrup": 75.343, "rrup_var": 0.0, "rvolc": 0.0}}, "geometry": {"type": "Point", "coordinates": [-71.5, -31.92]}}, {"type": "Feature", "id": "COSMOS.LLO", "properties": {"code": "LLO", "name": "Llolleo", "instrumentType": "UNK", "source": "COSMOS", "network": "COSMOS", "commType": "UNK", "location": "", "intensity": "null", "intensity_flag": "", "intensity_stddev": "null", "pga": 71.182, "pgv": "null", "distance": 44.105, "elev": null, "vs30": 600.0, "channels": [{"name": "UP", "amplitudes": [{"name": "sa(1.0)", "value": "null", "units": "%g", "flag": "G,UnknownOrientation,0,Outlier", "ln_sigma": "null"}, {"name": "pgv", "value": "null", "units": "cm/s", "flag": "G,UnknownOrientation,0,Outlier", "ln_sigma": "null"}, {"name": "pga", "value": 86.524, "units": "%g", "flag": "UnknownOrientation,0", "ln_sigma": 0.0}, {"name": "sa(0.3)", "value": "null", "units": "%g", "flag": "G,UnknownOrientation,0,Outlier", "ln_sigma": "null"}, {"name": "sa(3.0)", "value": "null", "units": "%g", "flag": "G,UnknownOrientation,0,Outlier", "ln_sigma": "null"}]}, {"name": "H2", "amplitudes": [{"name": "sa(1.0)", "value": "null", "units": "%g", "flag": "Glitch,0,Outlier", "ln_sigma": "null"}, {"name": "pgv", "value": "null", "units": "cm/s", "flag": "Glitch,0,Outlier", "ln_sigma": "null"}, {"name": "pga", "value": 71.182, "units": "%g", "flag": "0", "ln_sigma": 0.0}, {"name": "sa(0.3)", "value": "null", "units": "%g", "flag": "Glitch,0,Outlier", "ln_sigma": "null"}, {"name": "sa(3.0)", "value": "null", "units": "%g", "flag": "Glitch,0,Outlier", "ln_sigma": "null"}]}, {"name": "H1", "amplitudes": [{"name": "sa(1.0)", "value": "null", "units": "%g", "flag": "Glitch,0,Outlier", "ln_sigma": "null"}, {"name": "pgv", "value": "null", "units": "cm/s", "flag": "Glitch,0,Outlier", "ln_sigma": "null"}, {"name": "pga", "value": 44.536, "units": "%g", "flag": "0", "ln_sigma": 0.0}, {"name": "sa(0.3)", "value": "null", "units": "%g", "flag": "Glitch,0,Outlier", "ln_sigma": "null"}, {"name": "sa(3.0)", "value": "null", "units": "%g", "flag": "Glitch,0,Outlier", "ln_sigma": "null"}]}], "station_type": "seismic", "nresp": "null", "predictions": [{"name": "sa(3.0)", "value": 4.1554, "value_rock": 3.7675, "value_soil": 6.6587, "units": "%g", "ln_tau": 0.4317, "ln_phi": 0.6259, "ln_sigma": 0.7603, "ln_sigma_rock": 0.7697, "ln_sigma_soil": 0.7697, "ln_bias": 0.1489, "ln_bias_sigma": 0.2362}, {"name": "pga", "value": 34.5684, "value_rock": 31.0399, "value_soil": 32.9926, "units": "%g", "ln_tau": 0.3684, "ln_phi": 0.58, "ln_sigma": 0.6871, "ln_sigma_rock": 0.6883, "ln_sigma_soil": 0.6897, "ln_bias": -0.0675, "ln_bias_sigma": 0.1296}, {"name": "sa(1.0)", "value": 23.0196, "value_rock": 19.3855, "value_soil": 36.7559, "units": "%g", "ln_tau": 0.4453, "ln_phi": 0.6495, "ln_sigma": 0.7875, "ln_sigma_rock": 0.787, "ln_sigma_soil": 0.7899, "ln_bias": 0.3117, "ln_bias_sigma": 0.2156}, {"name": "pgv", "value": 21.8951, "value_rock": 18.4386, "value_soil": 34.9605, "units": "cm/s", "ln_tau": 0.4453, "ln_phi": 0.8245, "ln_sigma": 0.9371, "ln_sigma_rock": 0.936, "ln_sigma_soil": 0.9394, "ln_bias": 0.1084, "ln_bias_sigma": 0.2004}, {"name": "sa(0.3)", "value": 83.6799, "value_rock": 66.1525, "value_soil": 87.7362, "units": "%g", "ln_tau": 0.3671, "ln_phi": 0.6607, "ln_sigma": 0.7559, "ln_sigma_rock": 0.7548, "ln_sigma_soil": 0.7549, "ln_bias": -0.2843, "ln_bias_sigma": 0.1995}, {"name": "mmi", "value": 7.2887, "value_rock": 7.1157, "value_soil": 7.2137, "units": "intensity", "tau": 0.592, "phi": 1.142, "sigma": 1.2863, "sigma_rock": 1.288, "sigma_soil": 1.2899, "bias": -0.0508, "bias_sigma": 0.2323}], "mmi_from_pgm": [{"name": "sa(3.0)", "value": null, "sigma": null, "flag": "0"}, {"name": "pga", "value": 8.45, "sigma": 0.66, "flag": "0"}, {"name": "sa(1.0)", "value": null, "sigma": null, "flag": "0"}, {"name": "pgv", "value": null, "sigma": null, "flag": "0"}, {"name": "sa(0.3)", "value": null, "sigma": null, "flag": "0"}], "distance_stddev": 0.0, "distances": {"repi": 59.979, "rhypo": 68.458, "rjb": 0.0, "rjb_var": 0.0, "rrup": 44.105, "rrup_var": 0.0, "rvolc": 0.0}}, "geometry": {"type": "Point", "coordinates": [-71.63, -32.635]}}, {"type": "Feature", "id": "COSMOS.4400", "properties": {"code": "4400", "name": "Santiago Endesa Bldg", "instrumentType": "UNK", "source": "COSMOS", "network": "COSMOS", "commType": "UNK", "location": "", "intensity": "null", "intensity_flag": "", "intensity_stddev": "null", "pga": 12.64, "pgv": "null", "distance": 86.907, "elev": null, "vs30": 285.37, "channels": [{"name": "UP", "amplitudes": [{"name": "sa(1.0)", "value": "null", "units": "%g", "flag": "G,UnknownOrientation,0,Outlier", "ln_sigma": "null"}, {"name": "pgv", "value": "null", "units": "cm/s", "flag": "G,UnknownOrientation,0,Outlier", "ln_sigma": "null"}, {"name": "pga", "value": 9.643, "units": "%g", "flag": "UnknownOrientation,0", "ln_sigma": 0.0}, {"name": "sa(0.3)", "value": "null", "units": "%g", "flag": "G,UnknownOrientation,0,Outlier", "ln_sigma": "null"}, {"name": "sa(3.0)", "value": "null", "units": "%g", "flag": "G,UnknownOrientation,0,Outlier", "ln_sigma": "null"}]}, {"name": "H2", "amplitudes": [{"name": "sa(1.0)", "value": "null", "units": "%g", "flag": "Glitch,0,Outlier", "ln_sigma": "null"}, {"name": "pgv", "value": "null", "units": "cm/s", "flag": "Glitch,0,Outlier", "ln_sigma": "null"}, {"name": "pga", "value": 12.64, "units": "%g", "flag": "0", "ln_sigma": 0.0}, {"name": "sa(0.3)", "value": "null", "units": "%g", "flag": "Glitch,0,Outlier", "ln_sigma": "null"}, {"name": "sa(3.0)", "value": "null", "units": "%g", "flag": "Glitch,0,Outlier", "ln_sigma": "null"}]}, {"name": "H1", "amplitudes": [{"name": "sa(1.0)", "value": "null", "units": "%g", "flag": "Glitch,0,Outlier", "ln_sigma": "null"}, {"name": "pgv", "value": "null", "units": "cm/s", "flag": "Glitch,0,Outlier", "ln_sigma": "null"}, {"name": "pga", "value": 12.232, "units": "%g", "flag": "0", "ln_sigma": 0.0}, {"name": "sa(0.3)", "value": "null", "units": "%g", "flag": "Glitch,0,Outlier", "ln_sigma": "null"}, {"name": "sa(3.0)", "value": "null", "units": "%g", "flag": "Glitch,0,Outlier", "ln_sigma": "null"}]}], "station_type": "seismic", "nresp": "null", "predictions": [{"name": "sa(3.0)", "value": 3.4584, "value_rock": 2.3755, "value_soil": 4.1985, "units": "%g", "ln_tau": 0.4317, "ln_phi": 0.6259, "ln_sigma": 0.7603, "ln_sigma_rock": 0.7697, "ln_sigma_soil": 0.7697, "ln_bias": 0.1489, "ln_bias_sigma": 0.2362}, {"name": "pga", "value": 16.8447, "value_rock": 15.2606, "value_soil": 18.2215, "units": "%g", "ln_tau": 0.3684, "ln_phi": 0.58, "ln_sigma": 0.6871, "ln_sigma_rock": 0.6883, "ln_sigma_soil": 0.6897, "ln_bias": -0.0675, "ln_bias_sigma": 0.1296}, {"name": "sa(1.0)", "value": 19.8067, "value_rock": 11.1868, "value_soil": 22.7938, "units": "%g", "ln_tau": 0.4453, "ln_phi": 0.6495, "ln_sigma": 0.7875, "ln_sigma_rock": 0.787, "ln_sigma_soil": 0.7899, "ln_bias": 0.3117, "ln_bias_sigma": 0.2156}, {"name": "pgv", "value": 18.8226, "value_rock": 10.631, "value_soil": 21.6613, "units": "cm/s", "ln_tau": 0.4453, "ln_phi": 0.8245, "ln_sigma": 0.9371, "ln_sigma_rock": 0.936, "ln_sigma_soil": 0.9394, "ln_bias": 0.1084, "ln_bias_sigma": 0.2004}, {"name": "sa(0.3)", "value": 53.6411, "value_rock": 33.8838, "value_soil": 55.5869, "units": "%g", "ln_tau": 0.3671, "ln_phi": 0.6607, "ln_sigma": 0.7559, "ln_sigma_rock": 0.7548, "ln_sigma_soil": 0.7549, "ln_bias": -0.2843, "ln_bias_sigma": 0.1995}, {"name": "mmi", "value": 6.4339, "value_rock": 6.2752, "value_soil": 6.5602, "units": "intensity", "tau": 0.592, "phi": 1.142, "sigma": 1.2863, "sigma_rock": 1.288, "sigma_soil": 1.2899, "bias": -0.0508, "bias_sigma": 0.2323}], "mmi_from_pgm": [{"name": "sa(3.0)", "value": null, "sigma": null, "flag": "0"}, {"name": "pga", "value": 5.97, "sigma": 0.66, "flag": "0"}, {"name": "sa(1.0)", "value": null, "sigma": null, "flag": "0"}, {"name": "pgv", "value": null, "sigma": null, "flag": "0"}, {"name": "sa(0.3)", "value": null, "sigma": null, "flag": "0"}], "distance_stddev": 0.0, "distances": {"repi": 117.666, "rhypo": 122.206, "rjb": 42.222, "rjb_var": 0.0, "rrup": 86.907, "rrup_var": 0.0, "rvolc": 0.0}}, "geometry": {"type": "Point", "coordinates": [-70.67, -33.47]}}, {"type": "Feature", "id": "COSMOS.HUA", "properties": {"code": "HUA", "name": "Hualane", "instrumentType": "UNK", "source": "COSMOS", "network": "COSMOS", "commType": "UNK", "location": "", "intensity": "null", "intensity_flag": "", "intensity_stddev": "null", "pga": 14.271, "pgv"